CELTEE 1                
1 41850U 16067C   23217.38512432  .00005333  00000+0  41123-3 0  9998
2 41850  98.0660   7.4388 0001199  92.8766 267.2594 15.02054008367801
OPTICUBE 04             
1 41851U 16067D   23216.96685681  .00003959  00000+0  32213-3 0  9991
2 41851  98.0566   4.9303 0015473  37.4209 322.8088 15.00071164367641
AEROCUBE 8D             
1 41852U 16067E   23216.67650629  .00005634  00000+0  42867-3 0  9992
2 41852  98.0757   5.8543 0007950  92.8358 267.3775 15.02516862367648
AEROCUBE 8C             
1 41853U 16067F   23216.40605055  .00005078  00000+0  38783-3 0  9991
2 41853  98.0560   4.9855 0010212  40.2465 319.9513 15.02405902367598
PROMETHEUS 2-1          
1 41854U 16067G   23217.39514929  .00012121  00000+0  82109-3 0  9998
2 41854  98.0737   9.4468 0017202  53.5073 306.7734 15.06521911367898
PROMETHEUS 2-3          
1 41855U 16067H   23216.65825425  .00009321  00000+0  63393-3 0  9995
2 41855  98.0653   8.4837 0014833  65.1996 295.0771 15.06482900367788
INS-1B                  
1 41954U 17008G   23217.17353832  .00142317  00000+0  13544-2 0  9992
2 41954  97.1924 278.5935 0005422 177.3850 182.7440 15.66361777360521
DIDO-2                  
1 42000U 17008BE  23217.13915034  .00026550  00000+0  62752-3 0  9995
2 42000  97.1966 272.4904 0005343 199.1342 160.9705 15.41794019359475
PEASSS                  
1 42015U 17008BV  23217.71118329  .00071864  00000+0  96211-3 0  9992
2 42015  97.2012 281.5239 0004531 177.1589 182.9694 15.57759031360557
UCLSAT                  
1 42765U 17036A   23217.57189399  .00077473  00000+0  10379-2 0  9996
2 42765  97.1361 256.3816 0003697 228.4123 131.6817 15.57723576340968
AALTO-1                 
1 42775U 17036L   23217.30773733  .00026230  00000+0  71567-3 0  9991
2 42775  97.1489 245.9848 0007103 287.6591  72.3878 15.37391553340064
URSA MAIOR              
1 42776U 17036M   23217.30370062  .00031046  00000+0  78594-3 0  9998
2 42776  97.1497 247.4763 0006656 280.7639  79.2858 15.39669914340140
DIAMOND RED             
1 42783U 17036U   23217.63047667  .00035967  00000+0  80646-3 0  9991
2 42783  97.1471 251.3334 0004877 279.0530  81.0166 15.43316634340418
PEGASUS                 
1 42784U 17036V   23217.10279581  .00055602  00000+0  93021-3 0  9995
2 42784  97.1421 254.0566 0004026 249.5761 110.5060 15.51706734340554
DIAMOND GREEN           
1 42785U 17036W   23217.07539665  .00038875  00000+0  83358-3 0  9999
2 42785  97.1456 251.0720 0004390 279.1421  80.9331 15.44629645340332
DIAMOND BLUE            
1 42786U 17036X   23217.56962921  .00039593  00000+0  86453-3 0  9996
2 42786  97.1465 251.4663 0004782 277.0782  82.9923 15.44085720340402
SUCHAI                  
1 42788U 17036Z   23217.62497783  .00140686  00000+0  12811-2 0  9996
2 42788  97.1366 259.2509 0004781 217.2459 142.8472 15.67469789341014
SKCUBE                  
1 42789U 17036AA  23217.66364648  .00082793  00000+0  10766-2 0  9995
2 42789  97.1378 257.1833 0004498 231.4208 128.6646 15.58498175340802
ROBUSTA 1B              
1 42792U 17036AD  23217.61559708  .00117519  00000+0  12284-2 0  9999
2 42792  97.1358 258.6967 0004330 213.2778 146.8210 15.64077038340912
CICERO 6                
1 42793U 17036AE  23217.07588428  .00028890  00000+0  69656-3 0  9990
2 42793  97.1453 250.7802 0004297 284.9565  75.1206 15.41179871340429
CORVUS BC2              
1 42846U 17042X   23217.72921748  .00002815  00000+0  26212-3 0  9994
2 42846  97.3846  56.0134 0010137  52.1591 308.0546 14.94990142330125
CORVUS BC1              
1 42847U 17042Y   23217.11503011  .00003444  00000+0  31882-3 0  9995
2 42847  97.3844  55.7956 0010024  54.3258 305.8895 14.95083301330045
MIRATA                  
1 43015U 17073C   23217.66479821  .00012702  00000+0  78448-3 0  9994
2 43015  97.6267 104.0173 0205845 249.4862 108.4160 14.94027300308873
MAKERSAT 0              
1 43016U 17073D   23217.10789376  .00008227  00000+0  54991-3 0  9997
2 43016  97.6253 101.2521 0221162 261.9336  95.6738 14.89358660308586
CORVUS BC3              
1 43118U 18004H   23217.73880017  .00026152  00000+0  64166-3 0  9990
2 43118  97.3218 292.0838 0005432 332.4859  27.6100 15.40666925309663
CICERO 7                
1 43143U 18004AJ  23217.74455028  .00081212  00000+0  94226-3 0  9997
2 43143  97.3310 305.8838 0002591 290.2062  69.8916 15.61517041310478
GOMX-4B                 
1 43196U 18015E   23217.74643573  .00018908  00000+0  50479-3 0  9995
2 43196  97.5844  10.1798 0014100  33.2540 326.9588 15.38063164306569
GOMX-4A                 
1 43197U 18015F   23217.70617123  .00023541  00000+0  55840-3 0  9990
2 43197  97.5840  12.4992 0013125  27.5889 332.6051 15.41640043306723
AEROCUBE 12B            
1 43557U 18046D   23217.45606723  .00939880  45612-3  15080-2 0  9995
2 43557  51.6150 288.8262 0011636 357.5659   2.5293 16.02893213283523
CUBEBEL-1 (BSUSAT-1)    
1 43666U 18083E   23217.72546850  .00041741  00000+0  99371-3 0  9995
2 43666  97.3765 249.7220 0006098 302.4310  57.6346 15.41480603264821
CICERO 10               
1 43690U 18088A   23217.44142242  .00028075  00000+0  73948-3 0  9990
2 43690  85.0291  39.1902 0011723  56.4499 303.7870 15.38319463263040
PROXIMA I               
1 43694U 18088E   23217.43647040  .00035255  00000+0  83441-3 0  9996
2 43694  85.0223  34.6470 0012242  19.1943 340.9768 15.41554382263354
PROXIMA II              
1 43696U 18088G   23217.45471450  .00034438  00000+0  81917-3 0  9998
2 43696  85.0228  34.6920 0012392  18.9660 341.2052 15.41403086263354
SIRION PATHFINDER-2     
1 43759U 18099B   23217.72234656  .00005200  00000+0  43222-3 0  9997
2 43759  97.5700 277.9945 0010835 316.5137  43.5231 14.99103326255046
CORVUS BC4              
1 43767U 18099K   23217.10360893  .00004496  00000+0  37983-3 0  9994
2 43767  97.5624 275.2725 0009181 323.3798  36.6797 14.98554705254856
MOVE-II                 
1 43780U 18099Y   23217.39599523  .00014528  00000+0  10333-2 0  9990
2 43780  97.5672 280.4043 0008063 352.4259   7.6844 15.04734137255138
SPACEBEE-7              
1 43816U 18099BL  23217.15255732  .00008591  00000+0  63707-3 0  9992
2 43816  97.5933 281.0515 0010173 293.9529  66.0631 15.03284508254664
SPACEBEE-5              
1 43817U 18099BM  23217.17011917  .00052310  00000+0  23521-2 0  9997
2 43817  97.5883 289.4605 0003198 247.9894 112.1001 15.20928196255138
SPACEBEE-6              
1 43818U 18099BN  23217.18359261  .00015592  00000+0  10349-2 0  9991
2 43818  97.5864 283.3464 0010025 309.1784  50.8552 15.07281408254940
SHIELDS 1               
1 43850U 18104B   23217.23712677  .00010186  00000+0  35584-3 0  9997
2 43850  85.0285 136.6707 0013514 162.9804 197.1898 15.29331128257602
STF-1                   
1 43852U 18104D   23217.77202796  .00049408  00000+0  98551-3 0  9996
2 43852  85.0241 133.2456 0011322 147.2668 212.9291 15.46593551258051
ZACUBE-2                
1 43907U 18111AH  23217.72050767  .00037523  00000+0  83842-3 0  9991
2 43907  97.1298  96.2260 0015059  43.0820 317.1604 15.43302364256784
LUME 1                  
1 43908U 18111AJ  23217.20186719  .00050910  00000+0  89984-3 0  9990
2 43908  97.1306  99.8424 0012144  34.4136 325.7900 15.50100774256976
MOVE-IIB                
1 44398U 19038N   23217.50622924  .00076784  00000+0  15399-2 0  9994
2 44398  97.6613 202.8742 0016413 113.1763 247.1217 15.46286379226278
SONATE                  
1 44400U 19038Q   23216.69230972  .00011551  00000+0  50155-3 0  9996
2 44400  97.6870 195.3783 0021838 139.0133 221.2749 15.22268448225614
LUCKY-7                 
1 44406U 19038W   23216.74567593  .00015059  00000+0  59437-3 0  9999
2 44406  97.6834 196.9128 0020497 132.7357 227.5609 15.25442943225721
BEESAT 9                
1 44412U 19038AC  23217.42187727  .00035259  00000+0  11216-2 0  9995
2 44412  97.6766 199.7697 0017438 126.9813 233.3027 15.32369399225693
JAISAT-1                
1 44419U 19038F   23217.42742000  .00035209  00000+0  11105-2 0  9995
2 44419  97.6759 200.8779 0016796 123.6989 236.5856 15.32653095226078
DUCHIFAT-3              
1 44854U 19089C   23217.18230280  .00011585  00000+0  76102-3 0  9999
2 44854  36.9612 158.2956 0008367 343.5288  16.5183 15.07054171200228
EYESAT-NANO             
1 44877U 19092E   23217.48561205  .00079822  00000+0  15138-2 0  9994
2 44877  97.4561  49.2175 0006074 301.6605  58.4052 15.48022776201717
M2 PATHFINDER           
1 45727U 20037E   23217.01545821  .00003715  00000+0  35017-3 0  9992
2 45727  97.7601  31.1431 0013341 101.3406 258.9314 14.94342995168532
NETSAT-4                
1 46504U 20068U   23217.74779755  .00008660  00000+0  56234-3 0  9993
2 46504  97.7638 164.0538 0011066  11.2778 348.8696 15.08244606156370
NETSAT-3                
1 46505U 20068V   23217.78720753  .00007719  00000+0  50458-3 0  9998
2 46505  97.7628 163.8901 0010529  21.1977 338.9685 15.08040759156387
NETSAT-1                
1 46506U 20068W   23217.37677463  .00006967  00000+0  46075-3 0  9997
2 46506  97.7641 163.3359 0009393  33.8006 326.3819 15.07656647156316
NETSAT-2                
1 46507U 20068X   23217.08457320  .00007740  00000+0  50456-3 0  9992
2 46507  97.7626 163.1151 0008795  40.4256 319.7624 15.08158671156229
SAI-1 NANOCONNECT-2     
1 47701U 21015C   23217.21556156  .00088686  00000+0  13332-2 0  9993
2 47701  97.3808 301.8152 0005389  54.9389 305.2370 15.54541131135750
WILDTRACKCUBE-SIMBA     
1 47941U 21022K   23217.77985923  .00009401  00000+0  53390-3 0  9993
2 47941  97.4911 113.9496 0019520 159.4804 200.7215 15.12971961130507
BEESAT-6                
1 47957U 21022AB  23216.95672859  .00025812  00000+0  11581-2 0  9999
2 47957  97.4878 115.4818 0017046 153.0737 207.1386 15.21045239130349
SMOG-1                  
1 47964U 21022AJ  23217.29481233  .00028952  00000+0  12286-2 0  9990
2 47964  97.4921 118.0077 0016051 138.5911 221.6545 15.22935342129541
